PHASE 3B (AO-10)        
1 14129U 83058B   20353.34181840  .00000410  00000-0  00000-0 0  9998
2 14129  25.7322 185.0164 6076028 293.5805  15.3787  2.05866556254191
UOSAT 2 (UO-11)         
1 14781U 84021B   20355.89353844  .00000115  00000-0  20119-4 0  9999
2 14781  97.5895 358.5820 0007331 316.2674  43.7959 14.83227780959462
LUSAT (LO-19)           
1 20442U 90005G   20356.15549753  .00000022  00000-0  24681-4 0  9990
2 20442  98.7178 304.2451 0011237 330.5137  29.5412 14.32970997615353
EYESAT A (AO-27)        
1 22825U 93061C   20355.89958875 -.00000018  00000-0  11282-4 0  9990
2 22825  98.9245   3.0628 0008237 187.6168 172.4889 14.30101237420461
ITAMSAT (IO-26)         
1 22826U 93061D   20355.98210768 -.00000001  00000-0  17468-4 0  9997
2 22826  98.9189   3.0739 0009009 175.4983 184.6281 14.30438640420967
RADIO ROSTO (RS-15)     
1 23439U 94085A   20355.90373541 -.00000037  00000-0  15882-3 0  9992
2 23439  64.8167 304.7243 0154950   7.3348 352.9794 11.27569732 70208
JAS-2 (FO-29)           
1 24278U 96046B   20355.80107660 -.00000027  00000-0  11521-4 0  9995
2 24278  98.5882  81.2968 0349402 252.3124 103.9589 13.53101305202089
TECHSAT 1B (GO-32)      
1 25397U 98043D   20355.82692491  .00000004  00000-0  21220-4 0  9991
2 25397  98.7509 296.0764 0000580 180.6426 179.4752 14.23697559166076
ISS (ZARYA)             
1 25544U 98067A   20356.56194809  .00001205  00000-0  29815-4 0  9995
2 25544  51.6442 141.3370 0001552 148.1510 332.6182 15.49207331261061
PCSAT (NO-44)           
1 26931U 01043C   20356.11433261 -.00000042  00000-0  15848-4 0  9993
2 26931  67.0519  20.6878 0007338 273.4110  86.6152 14.30599717  3840
SAUDISAT 1C (SO-50)     
1 27607U 02058C   20355.93816150  .00000035  00000-0  25384-4 0  9999
2 27607  64.5537 164.1985 0029839 103.1508 257.2927 14.75693089968231
CUTE-1 (CO-55)          
1 27844U 03031E   20356.00180629  .00000051  00000-0  42852-4 0  9995
2 27844  98.6818   0.9180 0009039 231.7749 128.2616 14.22276876906656
CUBESAT XI-IV (CO-57)   
1 27848U 03031J   20356.01255330  .00000038  00000-0  36893-4 0  9995
2 27848  98.6878   1.4961 0008794 245.9566 114.0692 14.21858464906486
MOZHAYETS 4 (RS-22)     
1 27939U 03042A   20356.42444263  .00000142  00000-0  34031-4 0  9996
2 27939  98.1154 129.0692 0014198 120.7724 239.4887 14.66924749921426
CUBESAT XI-V            
1 28895U 05043F   20356.09450991  .00000161  00000-0  39631-4 0  9991
2 28895  98.0341 127.5263 0017752  55.3706 304.9167 14.63843520808140
CUTE-1.7+APD II (CO-65) 
1 32785U 08021C   20356.07538690  .00000328  00000-0  40822-4 0  9993
2 32785  97.5919 336.0787 0011737 230.5620 129.4559 14.88592198685704
DELFI-C3 (DO-64)        
1 32789U 08021G   20356.39422337  .00002099  00000-0  13904-3 0  9999
2 32789  97.3978  32.4891 0012785  40.7794 319.4389 15.08296841690089
SEEDS II (CO-66)        
1 32791U 08021J   20355.68441822  .00000370  00000-0  42539-4 0  9990
2 32791  97.5551 341.7646 0012670 195.5740 164.5091 14.91219192686133
YUBILEINY (RS-30)       
1 32953U 08025A   20356.52086263  .00000028  00000-0  12906-3 0  9996
2 32953  82.5019 161.5907 0019252   7.1955 352.9400 12.43099100570873
KKS-1 (KISEKI)          
1 33499U 09002H   20355.86441567  .00000134  00000-0  27630-4 0  9995
2 33499  98.2911 215.5728 0007885 248.3542 111.6827 14.75596655640072
SWISSCUBE               
1 35932U 09051B   20356.08441153  .00000158  00000-0  46644-4 0  9991
2 35932  98.6068 184.4008 0006518 275.9944  84.0509 14.56465911597038
BEESAT-1                
1 35933U 09051C   20356.12631371  .00000129  00000-0  39968-4 0  9999
2 35933  98.6048 186.3041 0004767 292.2433  67.8258 14.56532538597157
ITUPSAT1                
1 35935U 09051E   20356.09343268  .00000110  00000-0  36329-4 0  9990
2 35935  98.6152 186.4413 0007076 291.0976  68.9464 14.55671519596853
XIWANG-1 (HOPE-1)       
1 36122U 09072B   20355.91991301 -.00000034  00000-0  20938-4 0  9994
2 36122 100.1121 338.1584 0007710 149.6078 210.5488 13.16358052529406
JUGNU                   
1 37839U 11058B   20356.05530736  .00000288  00000-0  11442-4 0  9994
2 37839  19.9601 231.1253 0018853 285.3467 221.7657 14.12698145475316
SRMSAT                  
1 37841U 11058D   20355.96014620  .00000314  00000-0  27179-4 0  9999
2 37841  19.9726 299.8896 0012062 132.6789 289.6777 14.10680980474498
M-CUBED & EXP-1 PRIME   
1 37855U 11061F   20355.79753005  .00003503  00000-0  17673-3 0  9996
2 37855 101.7265 180.5360 0169051 241.7492 116.6567 15.06937866499269
STRAND-1                
1 39090U 13009E   20356.13686091 -.00000054  00000-0 -37298-5 0  9999
2 39090  98.4387 196.3951 0010250  89.4294 270.8066 14.35159083409483
SOMP                    
1 39134U 13015E   20355.54408763  .00002218  00000-0  10613-3 0  9999
2 39134  64.8648  33.9048 0015903 220.4858 139.5088 15.21750192423985
BEESAT-3                
1 39135U 13015F   20356.49330538  .00001735  00000-0  92378-4 0  9991
2 39135  64.8672  57.1671 0021326 210.6884 149.2997 15.18731334424003
BEESAT-2                
1 39136U 13015G   20356.15438982  .00001557  00000-0  84900-4 0  9991
2 39136  64.8761  63.9368 0031481 264.2790  95.4747 15.18116560423849
ZACUBE-1 (TSHEPISOSAT)  
1 39417U 13066B   20355.93473365  .00000394  00000-0  55333-4 0  9994
2 39417  97.5773 343.7051 0059454  27.7600 332.6765 14.81386804382644
GOMX-1                  
1 39430U 13066Q   20356.35801926  .00000326  00000-0  68271-4 0  9994
2 39430  97.8067 283.7245 0150053 316.2982  42.6408 14.59506253377061
CUBEBUG-2 (LO-74)       
1 39440U 13066AA  20356.18178416  .00000335  00000-0  52909-4 0  9998
2 39440  97.6537 328.5912 0081442  93.9390 267.1136 14.76119933381328
FUNCUBE-1 (AO-73)       
1 39444U 13066AE  20356.49899651  .00000505  00000-0  67815-4 0  9998
2 39444  97.5697 346.5561 0058294  17.3192 342.9993 14.82267199381662
UWE-3                   
1 39446U 13066AG  20356.18911266  .00000370  00000-0  55167-4 0  9990
2 39446  97.6171 335.6928 0071132  61.2281 299.6051 14.78654782380756
SPROUT                  
1 39770U 14029E   20356.30663329  .00000856  00000-0  99122-4 0  9996
2 39770  97.9065 101.9379 0010125  75.4540 284.7798 14.88073514356840
UNISAT-6                
1 40012U 14033C   20356.13358552  .00000236  00000-0  41957-4 0  9997
2 40012  97.6881 201.7610 0059403 116.3307 244.4020 14.74211349349926
DUCHIFAT-1              
1 40021U 14033M   20356.38464742  .00000696  00000-0  76002-4 0  9992
2 40021  97.9576 288.8922 0013760  36.1961 324.0185 14.91109552353746
QB50P1                  
1 40025U 14033R   20355.77705495  .00000397  00000-0  47833-4 0  9999
2 40025  97.9242 280.1172 0013559  50.4529 309.7883 14.89280433352825
NUDT-PHONESAT           
1 40900U 15049B   20356.32994743  .00003302  00000-0  13448-3 0  9990
2 40900  97.4270   5.7253 0013693  51.3883  73.4972 15.25116951291668
ZDPS 2A                 
1 40901U 15049C   20356.42709707  .00001702  00000-0  84807-4 0  9996
2 40901  97.4626 359.7293 0014970  82.8904  51.7375 15.18832761290944
ZDPS 2B                 
1 40902U 15049D   20356.40947874  .00001935  00000-0  95926-4 0  9996
2 40902  97.4638 356.9901 0015046  80.1325  55.9314 15.18843655290916
XW-2A                   
1 40903U 15049E   20356.42018124  .00002876  00000-0  64807-4 0  9995
2 40903  97.2633  45.3196 0011223 308.6596 172.1067 15.44048907295318
KAITUO 1A               
1 40904U 15049F   20356.41557604  .00000718  00000-0  40843-4 0  9993
2 40904  97.4820 354.7019 0016174  94.2907  37.6970 15.15925829290569
2015-049G               
1 40905U 15049G   20356.44945786  .00000501  00000-0  30502-4 0  9990
2 40905  97.4926 351.8636 0017264  92.7949  62.9756 15.14755421290381
XW-2C                   
1 40906U 15049H   20356.42170396  .00000907  00000-0  50035-4 0  9999
2 40906  97.4819 355.0996 0016420  85.2877  52.2844 15.16372586290589
XW-2D                   
1 40907U 15049J   20356.45435507  .00001001  00000-0  54460-4 0  9993
2 40907  97.4811 354.8740 0015759  82.5231  74.2795 15.16644910290610
LILACSAT-2              
1 40908U 15049K   20356.47493222  .00000714  00000-0  42587-4 0  9991
2 40908  97.4982 352.9914 0017513  94.4802  27.4155 15.14222561290294
XW-2F                   
1 40910U 15049M   20356.42496481  .00001443  00000-0  73227-4 0  9994
2 40910  97.4712 357.6916 0016175  72.2958  33.7268 15.18428232290709
XW-2B                   
1 40911U 15049N   20356.43799462  .00000826  00000-0  45667-4 0  9992
2 40911  97.4814 355.5552 0015652  83.3483  20.7053 15.16565456290505
KAITUO 1B               
1 40912U 15049P   20356.38567757  .00001748  00000-0  82011-4 0  9995
2 40912  97.4471   1.9541 0015923  49.6323  57.7505 15.20886142291128
TIANWANG 1C (TW-1C)     
1 40926U 15051B   20356.43326638  .00096773  00000-0  46923-3 0  9993
2 40926  97.0553  50.5889 0004228 100.2741  26.4881 15.82205241296385
TIANWANG 1A (TW-1A)     
1 40928U 15051D   20356.35529918  .00004458  00000-0  99478-4 0  9995
2 40928  97.0935  19.5988 0008704 216.4377 271.8719 15.44026214294196
LAPAN-A2                
1 40931U 15052B   20356.57434170  .00000660  00000-0  28526-5 0  9997
2 40931   5.9968  80.9059 0013282  41.1281 318.9876 14.76655891282961
E-ST@R-II               
1 41459U 16025D   20356.54126896  .00002233  00000-0  11461-3 0  9990
2 41459  98.1209 116.5523 0161680 302.0714  56.4901 15.07125718255617
AAUSAT 4                
1 41460U 16025E   20356.31067079  .00002474  00000-0  12199-3 0  9990
2 41460  98.1181 119.3543 0149851 289.4061  69.1022 15.09736689255825
NUSAT-1 (FRESCO)        
1 41557U 16033B   20356.59571188  .00002073  00000-0  76896-4 0  9997
2 41557  97.3999  85.6267 0014285 140.2430 333.8088 15.28656015254359
BEESAT-4                
1 41619U 16040W   20355.60146909  .00002334  00000-0  97209-4 0  9995
2 41619  97.2962  50.5364 0009461 238.2203 121.8114 15.24674120237755
